STARLINK-5522           
1 56498U 23064BC  26148.66724816 -.00000001  00000+0  77203-5 0  9993
2 56498  69.9996 262.7492 0002885 267.7161  92.3668 14.98327721168213
STARLINK-5775           
1 56503U 23065A   26148.99426060  .00000062  00000+0  11791-4 0  9992
2 56503  43.0021 118.7690 0002236 289.4928  70.5682 15.27608105168882
STARLINK-5716           
1 56504U 23065B   26148.94304615 -.00000782  00000+0 -18918-4 0  9998
2 56504  43.0036 119.2394 0001172 243.5211 116.5520 15.27567209168870
STARLINK-5763           
1 56505U 23065C   26148.96872633 -.00000350  00000+0 -32155-5 0  9992
2 56505  43.0035 119.4288 0001061 283.6636  76.4097 15.27574760168870
STARLINK-5340           
1 56506U 23065D   26148.95074635  .00000504  00000+0  27845-4 0  9996
2 56506  43.0052 107.9860 0001593 271.9669  88.1000 15.27573514169000
STARLINK-5333           
1 56507U 23065E   26149.16505480  .00001501  00000+0  64060-4 0  9996
2 56507  43.0043  85.2416 0001546 254.3524 105.7158 15.27577376169289
STARLINK-5335           
1 56508U 23065F   26148.91475259  .00000182  00000+0  16158-4 0  9998
2 56508  43.0035 119.0250 0001550 259.3840 100.6837 15.27576785168879
STARLINK-5334           
1 56509U 23065G   26148.20707002 -.00000118  00000+0  52513-5 0  9991
2 56509  43.0033 123.1707 0001281 257.4921 102.5787 15.27571385168765
STARLINK-5339           
1 56510U 23065H   26148.98399267  .00001227  00000+0  54130-4 0  9995
2 56510  43.0055 118.6896 0001805 267.0425  93.0220 15.27577461168887
STARLINK-5351           
1 56511U 23065J   26148.99813378 -.00000293  00000+0 -11386-5 0  9992
2 56511  43.0021 118.7828 0001107 265.8173  94.2552 15.27574506168886
STARLINK-5349           
1 56512U 23065K   26148.92246199  .00001367  00000+0  59206-4 0  9990
2 56512  43.0033 119.0729 0001158 241.6692 118.4043 15.27578932168878
STARLINK-5329           
1 56513U 23065L   26148.28273369  .00000589  00000+0  30923-4 0  9999
2 56513  43.0010 122.8768 0001238 267.8300  92.2410 15.27577316168775
STARLINK-5348           
1 56515U 23065N   26148.94045292  .00000125  00000+0  14074-4 0  9991
2 56515  43.0017 119.2147 0001098 260.1746  99.8982 15.27576847168875
STARLINK-5342           
1 56516U 23065P   26148.99556361  .00002203  00000+0  89532-4 0  9991
2 56516  43.0037 118.7695 0001336 278.7493  81.3207 15.27588321168886
STARLINK-5345           
1 56517U 23065Q   26148.62508594 -.00000226  00000+0  13075-5 0  9991
2 56517  43.0030 121.1361 0001030 274.5161  85.5573 15.27575420168827
STARLINK-5346           
1 56518U 23065R   26148.94431262 -.00000176  00000+0  31266-5 0  9990
2 56518  43.0003 119.2433 0000633 276.6128  83.4652 15.27574482168877
STARLINK-6313           
1 56519U 23065S   26148.95844153  .00000375  00000+0  23150-4 0  9991
2 56519  43.0036 119.3384 0000643 306.9308  53.1485 15.27576307168874
STARLINK-6344           
1 56520U 23065T   26148.62124328 -.00000920  00000+0 -23939-4 0  9995
2 56520  43.0001 121.1107 0000563 259.4786 100.6002 15.27569572168829
STARLINK-6333           
1 56521U 23065U   26148.30666088 -.00000844  00000+0 -21186-4 0  9992
2 56521  43.0012 126.4494 0000680 259.1710 100.9065 15.27568114168736
STARLINK-6327           
1 56522U 23065V   26148.62765147  .00000669  00000+0  33838-4 0  9994
2 56522  43.0012 121.1597 0001251 271.3485  88.7223 15.27579120168821
STARLINK-6328           
1 56523U 23065W   26148.91104279  .00000955  00000+0  44232-4 0  9998
2 56523  43.0042 119.8420 0001735 269.3671  90.6982 15.27579229168863
STARLINK-6323           
1 56524U 23065X   26149.10078221  .00000074  00000+0  12231-4 0  9994
2 56524  43.0021 118.6889 0001526 278.1079  81.9600 15.27591062168897
STARLINK-6329           
1 56525U 23065Y   26149.16671295  .00049515  00000+0  20350-2 0  9993
2 56525  42.9994 128.6206 0001557 271.6460  55.2119 15.23439424  5837
STARLINK-6317           
1 56526U 23065Z   26148.64692784  .00000799  00000+0  38554-4 0  9990
2 56526  43.0045 121.3011 0001692 280.4303  79.6358 15.27575419168828
STARLINK-6335           
1 56527U 23065AA  26148.30793689  .00000017  00000+0  10145-4 0  9999
2 56527  43.0012 126.4560 0000881 272.8369  87.2382 15.27574221168736
STARLINK-6337           
1 56528U 23065AB  26148.62716258 -.00000197  00000+0  23716-5 0  9991
2 56528  43.0024 124.5517 0000889 269.7265  90.3485 15.27573670168780
STARLINK-6307           
1 56529U 23065AC  26149.16671295  .00009804  00000+0  36552-3 0  9996
2 56529  43.0001 106.9530 0001246 248.8432 142.4415 15.27561115  5847
STARLINK-6318           
1 56530U 23065AD  26149.18209749  .00000429  00000+0  25130-4 0  9996
2 56530  43.0055  92.4085 0001427 265.4571  94.6118 15.27583088169204
STARLINK-6280           
1 56531U 23065AE  26148.92311201  .00000564  00000+0  30037-4 0  9997
2 56531  43.0060 105.2184 0001175 265.5829  94.4888 15.27576241169037
STARLINK-6319           
1 56532U 23065AF  26148.91541593 -.00001570  00000+0 -47540-4 0  9993
2 56532  43.0029 105.1585 0001190 263.3915  96.6801 15.27568885169030
