OBJECT_NAME,OBJECT_ID,EPOCH,MEAN_MOTION,ECCENTRICITY,INCLINATION,RA_OF_ASC_NODE,ARG_OF_PERICENTER,MEAN_ANOMALY,EPHEMERIS_TYPE,CLASSIFICATION_TYPE,NORAD_CAT_ID,ELEMENT_SET_NO,REV_AT_EPOCH,BSTAR,MEAN_MOTION_DOT,MEAN_MOTION_DDOT
STARLINK-5522,2023-064BC,2026-05-28T16:00:50.241024,14.98327721,.0002885,69.9996,262.7492,267.7161,92.3668,0,U,56498,999,16821,.77203E-5,-.1E-7,0
STARLINK-5775,2023-065A,2026-05-28T23:51:44.115840,15.27608105,.0002236,43.0021,118.7690,289.4928,70.5682,0,U,56503,999,16888,.11791E-4,.62E-6,0
STARLINK-5716,2023-065B,2026-05-28T22:37:59.187360,15.27567209,.0001172,43.0036,119.2394,243.5211,116.5520,0,U,56504,999,16887,-.18918E-4,-.782E-5,0
STARLINK-5763,2023-065C,2026-05-28T23:14:57.954912,15.27574760,.0001061,43.0035,119.4288,283.6636,76.4097,0,U,56505,999,16887,-.32155E-5,-.35E-5,0
STARLINK-5340,2023-065D,2026-05-28T22:49:04.484640,15.27573514,.0001593,43.0052,107.9860,271.9669,88.1000,0,U,56506,999,16900,.27845E-4,.504E-5,0
STARLINK-5333,2023-065E,2026-05-29T03:57:40.734720,15.27577376,.0001546,43.0043,85.2416,254.3524,105.7158,0,U,56507,999,16928,.6406E-4,.1501E-4,0
STARLINK-5335,2023-065F,2026-05-28T21:57:14.623776,15.27576785,.000155,43.0035,119.0250,259.3840,100.6837,0,U,56508,999,16887,.16158E-4,.182E-5,0
STARLINK-5334,2023-065G,2026-05-28T04:58:10.849728,15.27571385,.00012817,43.0033,123.1707,257.4921,102.5787,0,U,56509,999,16876,.5251256E-5,-.118E-5,0
STARLINK-5339,2023-065H,2026-05-28T23:36:56.966688,15.27577461,.0001805,43.0055,118.6896,267.0425,93.0220,0,U,56510,999,16888,.5413E-4,.1227E-4,0
STARLINK-5351,2023-065J,2026-05-28T23:57:18.758592,15.27574506,.0001107,43.0021,118.7828,265.8173,94.2552,0,U,56511,999,16888,-.11386E-5,-.293E-5,0
STARLINK-5349,2023-065K,2026-05-28T22:08:20.715936,15.27578932,.0001158,43.0033,119.0729,241.6692,118.4043,0,U,56512,999,16887,.59206E-4,.1367E-4,0
STARLINK-5329,2023-065L,2026-05-28T06:47:08.190816,15.27577316,.0001238,43.0010,122.8768,267.8300,92.2410,0,U,56513,999,16877,.30923E-4,.589E-5,0
STARLINK-5348,2023-065N,2026-05-28T22:34:15.132288,15.27576847,.0001098,43.0017,119.2147,260.1746,99.8982,0,U,56515,999,16887,.14074E-4,.125E-5,0
STARLINK-5342,2023-065P,2026-05-28T23:53:36.695904,15.27588321,.0001336,43.0037,118.7695,278.7493,81.3207,0,U,56516,999,16888,.89532E-4,.2203E-4,0
STARLINK-5345,2023-065Q,2026-05-28T15:00:07.425216,15.27575420,.000103,43.0030,121.1361,274.5161,85.5573,0,U,56517,999,16882,.13075E-5,-.226E-5,0
STARLINK-5346,2023-065R,2026-05-28T22:39:48.610368,15.27574482,.0000633,43.0003,119.2433,276.6128,83.4652,0,U,56518,999,16887,.31266E-5,-.176E-5,0
STARLINK-6313,2023-065S,2026-05-28T23:00:09.348192,15.27576307,.0000643,43.0036,119.3384,306.9308,53.1485,0,U,56519,999,16887,.2315E-4,.375E-5,0
STARLINK-6344,2023-065T,2026-05-28T14:54:35.419392,15.27569572,.0000563,43.0001,121.1107,259.4786,100.6002,0,U,56520,999,16882,-.23939E-4,-.92E-5,0
STARLINK-6333,2023-065U,2026-05-28T07:21:35.500032,15.27568114,.000068,43.0012,126.4494,259.1710,100.9065,0,U,56521,999,16873,-.21186E-4,-.844E-5,0
STARLINK-6327,2023-065V,2026-05-28T15:03:49.087008,15.27579120,.0001251,43.0012,121.1597,271.3485,88.7223,0,U,56522,999,16882,.33838E-4,.669E-5,0
STARLINK-6328,2023-065W,2026-05-28T21:51:54.097056,15.27579229,.0001735,43.0042,119.8420,269.3671,90.6982,0,U,56523,999,16886,.44232E-4,.955E-5,0
STARLINK-6323,2023-065X,2026-05-29T02:25:07.582944,15.27591062,.0001526,43.0021,118.6889,278.1079,81.9600,0,U,56524,999,16889,.12231E-4,.74E-6,0
STARLINK-6329,2023-065Y,2026-05-29T04:00:03.998880,15.23439424,.0001557,42.9994,128.6206,271.6460,55.2119,0,U,56525,999,583,.2035E-2,.49515E-3,0
STARLINK-6317,2023-065Z,2026-05-28T15:31:34.565376,15.27575419,.0001692,43.0045,121.3011,280.4303,79.6358,0,U,56526,999,16882,.38554E-4,.799E-5,0
STARLINK-6335,2023-065AA,2026-05-28T07:23:25.747296,15.27574221,.0000881,43.0012,126.4560,272.8369,87.2382,0,U,56527,999,16873,.10145E-4,.17E-6,0
STARLINK-6337,2023-065AB,2026-05-28T15:03:06.846912,15.27573670,.0000889,43.0024,124.5517,269.7265,90.3485,0,U,56528,999,16878,.23716E-5,-.197E-5,0
STARLINK-6307,2023-065AC,2026-05-29T04:00:03.998880,15.27561115,.0001246,43.0001,106.9530,248.8432,142.4415,0,U,56529,999,584,.36552E-3,.9804E-4,0
STARLINK-6318,2023-065AD,2026-05-29T04:22:13.223136,15.27583088,.0001427,43.0055,92.4085,265.4571,94.6118,0,U,56530,999,16920,.2513E-4,.429E-5,0
STARLINK-6280,2023-065AE,2026-05-28T22:09:16.877664,15.27576241,.0001175,43.0060,105.2184,265.5829,94.4888,0,U,56531,999,16903,.30037E-4,.564E-5,0
STARLINK-6319,2023-065AF,2026-05-28T21:58:11.936352,15.27568885,.000119,43.0029,105.1585,263.3915,96.6801,0,U,56532,999,16903,-.4754E-4,-.157E-4,0
